Req Number,Provider,NPI#,Contact,Email,Submitted On,Submitted By,Status,Position,Zone,Region,Division,Location,Skills,Address 1,Address 2,City,State,Postal Code,Country,Tags
REQ-ADVE-00229,"""Test; Lock""",2342346521,4564687456,Test+test@goringo.com,6/8/2021 1:38:52 PM,MadMax Associates,Withdrawn,ABCO - JT,one,Northeast,Kansas Div,Stark Medical Centre,"1-3 Years Experience,.NET Framework",t,t,Akiachak,Alaska,23452,United States,
REQ-ADVE-00229,"devis, caarls",2323756789,,Testdre@goringo.com,6/8/2021 13:38,MadMax Associates,Assignment Completed,ABCO - JT,one,Northeast,Kansas Div,Stark Medical Centre,"1-3 Years Experience,.NET Framework",Hn345,,Acalanes Ridge,California,23234,United States,
REQ-ADVE-00208,"Ring, Roman",9090987891,1234233545,Test+ring@goringo.com,6/8/2021 13:38:52 ,MadMax Associates,Withdrawn,Accounts Payable Clerk,one,Northeast,Kansas Div,Stark Medical Centre,"Accounts Payable,Code,Outlook",Nashvile,hn67,Aromas,California,10071,United States,
REQ-ADVE-00208,"Southy, Tim",2324348331,1232321234,Testti@goringo.com,6/8/2021 1:38:52 PM,MadMax Associates,Assignment Extended,ABCO - JT,one,Northeast,Kansas Div,Stark Medical Centre,"1-3 Years Experience,.NET Framework",HN12378,,Adelanto,California,12323,United States,
REQ-ADVE-00207,"Pons, Bruna",6564531111,9876543567,test+bruna@goringo.com,03/21/2024,MadMax Associates,Assignment Completed,ABCO - JT,one,Northeast,Kansas Div,Stark Medical Centre,"1-3 Years Experience,.NET Framework",j,j,Abanda,Alabama,76535,United States,
REQ-ADVE-00207,"watson, Orton",2323453900,7676898767,Testort@goringo.com,03/22/2024,MadMax Associates,Withdrawn,ABCO - JT,one,Northeast,Kansas Div,Stark Medical Centre,"1-3 Years Experience,.NET Framework",Hn34,,Allenhurst,New Jersey,56456,United States,
REQ-ADVE-00207,"Olds, Sharon",8765678876,7654567654,Test+olds@goringo.com,03/21/2024,Core Staffing,Assignment Completed,Cardiac Nurse,one,Northeast,Kansas Div,Stark Medical Centre,"CV-BC,BSN",55 E Street,,Washington,District of Columbia,12321,United States,
REQ-ADVE-00206,"liam, jack",9876789800,,test+tiiwariiatul@gmail.com,6/10/2024,MadMax Associates,Pending Name Clearance,Assistant Buyer,one,Northeast,Kansas Div,Stark Medical Centre,Assistant Buyer,HN62,,Allport,Arkansas,345234567,United States,
REQ-ADVE-00206,"Bini, Rosser ",7834567812,7837752890,Test+Bin@goringo.com,06/10/2024,MadMax Associates,Pending Onboarding,Stockroom Clerk,one,Northeast,Kansas Div,Stark Medical Centre,Stockroom,HN73,,Alicia,Arkansas,23423,United States,
REQ-ADVE-00206,"Joshi, Chetan",7646234853,6535657442,test+joshii@goringo.com,03/18/2024,MadMax Associates,Assignment Completed,ABCO - JT,one,Northeast,Kansas Div,Stark Medical Centre,"1-3 Years Experience,.NET Framework",u,u,Abanda,Alabama,65346,United States,
REQ-ADVE-00205,"Negi, Varun",1232322121,,Test+deepak.nnegi@goringo.com,03/14/2024,A Plus Staffing,Assignment Extended,Administration Clerk,one,Northeast,South West ,Old town ,Data Entry,New Address,,Adamsville,Alabama,22112,United States,
REQ-ADVE-00204,"Ring, Roman",9090987891,1234233545,Test+ring@goringo.com,03/12/2024,MadMax Associates,Assignment Extended,Accounts Payable Clerk,one,Northeast,South West ,Front site,"Accounts Payable,Code,Outlook",Nashvile,hn67,Aromas,California,10071,United States,
REQ-ADVE-00204,"Pons, Bruna",6564531111,9876543567,test+bruna@goringo.com,06/10/2024,MadMax Associates,Assignment Started,ABCO - JT,one,Northeast,South West ,Front site,"1-3 Years Experience,.NET Framework",j,j,Abanda,Alabama,76535,United States,
REQ-ADVE-00204,"crak, jack",5353723737,6593760372,jack@gmail.com,06/10/2024,MadMax Associates,Withdrawn,Administration Clerk,one,Northeast,South West ,Front site,Data Entry,zoo,vvk,New Kingman-Butler,Arizona,46853,United States,
REQ-ADVE-00203,"Nelson, Foggy",3242433133,0987665345,Test+foggy@goringo.com,03/11/2024,MadMax Associates,Assignment Extended,Web Content Designer - CA,one,Northeast,South West ,Front site,Computer Experience,y,,Abanda,Alabama,87646,United States,
REQ-ADVE-00200,"Balvin, J",1212343454,4546545654,Test+hjag@goringo.com,06/10/2024,Core Staffing,Withdrawn,Registered Nurse,,South,Div 1,LOC1,BSN,564456,,Abbeville,Alabama,10258,United States,
REQ-ADVE-00200,"Dassler, Adolf",9876534757,8764576879,Test+adolf@goringo.com,02/19/2024,Rose Staffing,Assignment Started,ABCO - JT,,South,Div 1,LOC1,"1-3 Years Experience,.NET Framework",h,h,Abanda,Alabama,98765,United States,
REQ-ADVE-00200,"Southy, Tim",2324348331,1232321234,Testti@goringo.com,04/19/2024,Core Staffing,Assignment Started,ABCO - JT,,South,Div 1,LOC1,"1-3 Years Experience,.NET Framework",HN12378,,Adelanto,California,12323,United States,
REQ-ADVE-00199,"liam, jack",9876789800,,test+tiiwariiatul@gmail.com,02/15/2024,MadMax Associates,Assignment Extended - No Invoice,Assistant Buyer,one,Northeast,South West ,Front site,Assistant Buyer,HN62,,Allport,Arkansas,345234567,United States,
REQ-ADVE-00199,"Pitt, Brad",3434343434,5555555555,test+brad@goringo.com,03/12/2024,MadMax Associates,Assignment Completed,Administrative Assistant,one,Northeast,South West ,Front site,"Clerical,MS Outlook,WordPerfect,Computer Experience",12 Hn,14 HN ,Alexander,Arkansas,56565,United States,
REQ-ADVE-00197,"Walker, Allan",3454768878,4458809090,Test+wewer@goringo.com,01/30/2024,MadMax Associates,Assignment Extended,Senior Contracts Rep - CA,one,Northeast,Kansas Div,Location3,Excellent Follow-up Skills,t,,Abanda,Alabama,56566,United States,"Test,nurse"
REQ-ADVE-00196,"watson, Jen",1122222323,,Testwats@goringo.com,01/24/2024,Provider staffing,Assignment Completed,ABCO - JT,,South,Kentucky Div,kenucky Loc,"1-3 Years Experience,.NET Framework",HN34,,Adelanto,California,32123,United States,
REQ-ADVE-00195,"watson, Orton",2323453900,7676898767,Testort@goringo.com,01/30/2024,Provider staffing,Assignment Completed,ABCO - JT,,South,Kentucky Div,kenucky Loc,"1-3 Years Experience,.NET Framework",Hn34,,Allenhurst,New Jersey,56456,United States,
REQ-ADVE-00195,"jen, Roman ",2342345656,,Test+roman@goringo.com,01/23/2024,Provider staffing,Withdrawn,ABCO - JT,,South,Kentucky Div,kenucky Loc,"1-3 Years Experience,.NET Framework",HN34,,Alamillo,New Mexico,34123,United States,
REQ-ADVE-00194,"Bini, Rosser ",7834567812,7837752890,Test+Bin@goringo.com,01/23/2024,MadMax Associates,Rejected,Stockroom Clerk,,South,Kentucky Div,Wilkenson Hospital,Stockroom,HN73,,Alicia,Arkansas,23423,United States,
REQ-ADVE-00194,"cand, new",8989898980,,test+new@goringo.com,02/03/2024,MadMax Associates,Assignment Completed,Administration Clerk,,South,Kentucky Div,Wilkenson Hospital,Data Entry,h,,Agoura Hills,California,88888,United States,
REQ-ADVE-00193,"crak, jack",5353723737,6593760372,jack@gmail.com,01/04/2024,MadMax Associates,Withdrawn,Administration Clerk,one,Northeast,Kansas Div,Stark Medical Centre,Data Entry,zoo,vvk,New Kingman-Butler,Arizona,46853,United States,
REQ-ADVE-00193,"Kurian, Joby",2312345678,5676135965,Test+gfkujk@goringo.com,01/04/2024,MadMax Associates,Withdrawn,ABCO - JT,one,Northeast,Kansas Div,Stark Medical Centre,"1-3 Years Experience,.NET Framework",h,h,Abbeville,Alabama,55468,United States,
REQ-ADVE-00192,"Martin, Bob",1234567891,8897879798,Test+bob@goringo.com,12/28/2023,MadMax Associates,Assignment Completed,CRNA,one,Northeast,Kansas Div,Stark Medical Centre,"Anesthesia preparation and administration,Patient Assessment",312 Roads,,New York City,New York,10198,United States,
REQ-ADVE-00191,"hud, Robbin",2323234567,,test+robin@goringo.com,12/22/2023,Rose Staffing,Withdrawn,Site Supervisor,one,Northeast,Kansas Div,Stark Medical Centre," 5 yrs. Experience Minimum,''	Interface with the Talent Acquisition Managers",h,,Adelanto,California,32435,United States,
REQ-ADVE-00190,"Diesel, Win",5345465758,,Test+Wnicand@goringo.com,12/12/2023,MadMax Associates,Assignment Completed,ABCO - JT,one,Northeast,Kansas Div,Stark Medical Centre,"1-3 Years Experience,.NET Framework",E123,B23,Alma,Arkansas,24356,United States,
REQ-ADVE-00190,"Pons, Bruna",6564531111,9876543567,test+bruna@goringo.com,02/06/2024,MadMax Associates,Withdrawn,ABCO - JT,one,Northeast,Kansas Div,Stark Medical Centre,"1-3 Years Experience,.NET Framework",j,j,Abanda,Alabama,76535,United States,
REQ-ADVE-00189,"Kurian, Joby",2312345678,5676135965,Test+gfkujk@goringo.com,12/12/2023,MadMax Associates,Withdrawn,ABCO - JT,one,Northeast,Kansas Div,Stark Medical Centre,"1-3 Years Experience,.NET Framework",h,h,Abbeville,Alabama,55468,United States,
REQ-ADVE-00189,"Knowles, John",1324678898,1265656565,Test+john@goringo.com,01/16/2024,MadMax Associates,Assignment Completed,ABCO - JT,one,Northeast,Kansas Div,Stark Medical Centre,"1-3 Years Experience,.NET Framework",k,k,Abanda,Alabama,35652,United States,
REQ-ADVE-00188,"Schittt, Rolandd",5457889444,8763454444,Test+rolanddd@goringo.com,02/19/2024,Rose Staffing,Assignment Completed,Office Clerk,,South,Div 1,LOC1,Clerical,hhh,hhh,Abanda,Alabama,74444,United States,
REQ-ADVE-00188,"Prker, Jems",7867982345,,TestPar@goringo.com,12/11/2023,Winston Medical Staffing,Assignment Completed,Accountant -  CA,,South,Div 1,LOC1,Ability to Prioritize,HN23,,Blue Hills,Connecticut,67567,United States,
REQ-ADVE-00187,"Potts, Pepper",3412321245,5645768798,Test+fghjkl@goringo.com,12/01/2023,MadMax Associates,Assignment Completed,Web Content Designer - CA,one,Northeast,Kansas Div,Stark Medical Centre,Computer Experience,h,,Abanda,Alabama,87656,United States,
REQ-ADVE-00182,"Orton, Rendy",2323456789,3333333333,Testrendy@goringo.com,11/15/2023,MadMax Associates,Assignment Completed,Accountant -  CA,one,Northeast,Kansas Div,Stark Medical Centre,Ability to Prioritize,HN23,,Adelanto,California,43234,United States,
REQ-ADVE-00180,"Ring, Roman",9090987891,1234233545,Test+ring@goringo.com,06/10/2024,MadMax Associates,Pending Name Clearance - Client,Accounts Payable Clerk,one,Northeast,Kansas Div,Stark Medical Centre,"Accounts Payable,Code,Outlook",Nashvile,hn67,Aromas,California,10071,United States,
REQ-ADVE-00180,"Herstedt, Erik",7654456765,8765445676,test+erik@goringo.com,11/09/2023,MadMax Associates,Assignment Completed,ABCO - JT,one,Northeast,Kansas Div,Stark Medical Centre,"1-3 Years Experience,.NET Framework",u,u,Abanda,Alabama,87654,United States,
REQ-ADVE-00176,"Wells, Joan",,8765435656,test+joanwells@goringo.com,10/24/2023,MadMax Associates,Withdrawn,ABCO - JT,one,Northeast,Kansas Div,Stark Medical Centre,"1-3 Years Experience,.NET Framework",56,A-St.,Agoura Hills,California,76345,United States,
REQ-ADVE-00176,"Orton, Rendy",2323456789,3333333333,Testrendy@goringo.com,10/13/2023,Rose Staffing,Withdrawn,Accountant -  CA,one,Northeast,Kansas Div,Stark Medical Centre,Ability to Prioritize,HN23,,Adelanto,California,43234,United States,
REQ-ADVE-00176,"G, Aman",2134567890,,,01/01/1970,MadMax Associates,Withdrawn,Test1,one,Northeast,Kansas Div,Stark Medical Centre,"''	Interface with the Talent Acquisition Managers",HN34,,Adin,California,45645,United States,
REQ-ADVE-00176,"Lara, Brain",8786787878,,Test+BtainCan@goringo.com,10/25/2023,MadMax Associates,Withdrawn,Site Supervisor,one,Northeast,Kansas Div,Stark Medical Centre," 5 yrs. Experience Minimum,''	Interface with the Talent Acquisition Managers",H,,Agoura Hills,California,76789,United States,
REQ-ADVE-00176,"Hanks, Tom",2312343234,2123213456,Test+Tom@goringo.com,10/11/2023,MadMax Associates,Assignment Completed,Billing/Coding Coordinator,one,Northeast,Kansas Div,Stark Medical Centre,Billing Exp.,HN34,,Agoura Hills,California,43234,United States,
REQ-ADVE-00176,"Diesel, Win",5345465758,,Test+Wnicand@goringo.com,10/25/2023,MadMax Associates,Withdrawn,ABCO - JT,one,Northeast,Kansas Div,Stark Medical Centre,"1-3 Years Experience,.NET Framework",E123,B23,Alma,Arkansas,24356,United States,
REQ-ADVE-00176,"Lara, Brain",8786787878,,Test+BtainCan@goringo.com,10/25/2023,MadMax Associates,Withdrawn,Site Supervisor,one,Northeast,Kansas Div,Stark Medical Centre," 5 yrs. Experience Minimum,''	Interface with the Talent Acquisition Managers",H,,Agoura Hills,California,76789,United States,
REQ-ADVE-00176,"Morey, Kiran",,3423233222,Test+kk@goringo.com,10/16/2023,MadMax Associates,Withdrawn,Accounts Payable Clerk,one,Northeast,Kansas Div,Stark Medical Centre,"Accounts Payable,Code,Outlook",Test Address,2143323 Test,Bridgeport,Connecticut,10016,United States,
REQ-ADVE-00176,"Wells, Joan",,8765435656,test+joanwells@goringo.com,10/24/2023,MadMax Associates,Withdrawn,ABCO - JT,one,Northeast,Kansas Div,Stark Medical Centre,"1-3 Years Experience,.NET Framework",56,A-St.,Agoura Hills,California,76345,United States,
REQ-ADVE-00176,"Diesel, Win",5345465758,,Test+Wnicand@goringo.com,10/25/2023,MadMax Associates,Withdrawn,ABCO - JT,one,Northeast,Kansas Div,Stark Medical Centre,"1-3 Years Experience,.NET Framework",E123,B23,Alma,Arkansas,24356,United States,
REQ-ADVE-00176,"Wells, Joan",,8765435656,test+joanwells@goringo.com,10/24/2023,MadMax Associates,Withdrawn,ABCO - JT,one,Northeast,Kansas Div,Stark Medical Centre,"1-3 Years Experience,.NET Framework",56,A-St.,Agoura Hills,California,76345,United States,
REQ-ADVE-00170,"Martin, Bob",1234567891,8897879798,Test+bob@goringo.com,10/10/2023,MadMax Associates,Assignment Completed,CRNA,one,Northeast,Kansas Div,Stark Medical Centre,"Anesthesia preparation and administration,Patient Assessment",312 Roads,,New York City,New York,10198,United States,
REQ-ADVE-00169,"Vien, Marta",8765345243,7624245345,test+marta@goringo.com,10/09/2023,MadMax Associates,Withdrawn,ABCO - JT,one,Northeast,South West ,Front site,"1-3 Years Experience,.NET Framework",y,y,Alakanuk,Alaska,78654,United States,
REQ-ADVE-00168,"Hermes, Sandra",8765344546,9876456456,Test+sandra@goringo.com,09/20/2023,Rose Staffing,Withdrawn,ABCO - JT,,South,Div 1,LOC1,"1-3 Years Experience,.NET Framework",j,j,Abbeville,Alabama,75457,United States,
REQ-ADVE-00167,"Brin, Sergey",6543456786,9876556576,Test+sergey@goringo.com,09/20/2023,Rose Staffing,Assignment Completed,ABCO - JT,,South,Div 1,LOC1,"1-3 Years Experience,.NET Framework",k,k,Abanda,Alabama,76545,United States,
REQ-ADVE-00166,"Hanks, Tom",2312343234,2123213456,Test+Tom@goringo.com,09/19/2023,MadMax Associates,Withdrawn,Billing/Coding Coordinator,one,Northeast,Kansas Div,Stark Medical Centre,Billing Exp.,HN34,,Agoura Hills,California,43234,United States,
REQ-ADVE-00165,"Lara, Brain",8786787878,,Test+BtainCan@goringo.com,10/25/2023,MadMax Associates,Withdrawn,Site Supervisor,one,Northeast,Kansas Div,Stark Medical Centre," 5 yrs. Experience Minimum,''	Interface with the Talent Acquisition Managers",H,,Agoura Hills,California,76789,United States,
REQ-ADVE-00165,"Carg, Daniel",2345653456,,Test+Danial@goringo.com,09/19/2023,MadMax Associates,Assignment Completed,ABCO - JT,one,Northeast,Kansas Div,Stark Medical Centre,"1-3 Years Experience,.NET Framework",HN35,,Akron,Colorado,354678987,United States,
REQ-ADVE-00164,"Wells, Joan",,8765435656,test+joanwells@goringo.com,09/15/2023,MadMax Associates,Assignment Completed,ABCO - JT,one,Northeast,Kansas Div,Stark Medical Centre,"1-3 Years Experience,.NET Framework",56,A-St.,Agoura Hills,California,76345,United States,
REQ-ADVE-00163,"Bini, Rosser ",7834567812,7837752890,Test+Bin@goringo.com,09/13/2023,MadMax Associates,Assignment Completed,Stockroom Clerk,one,Northeast,Kansas Div,Stark Medical Centre,Stockroom,HN73,,Alicia,Arkansas,23423,United States,
REQ-ADVE-00163,"Schitt, Twyla",7654567765,8754356768,Test+twyla@goringo.com,09/12/2023,Rose Staffing,Assignment Completed,ABCO - JT,one,Northeast,Kansas Div,Stark Medical Centre,"1-3 Years Experience,.NET Framework",j,j,Alamo Lake,Arizona,32444,United States,
REQ-ADVE-00162,"Bini, Rosser ",7834567812,7837752890,Test+Bin@goringo.com,09/11/2023,Rose Staffing,Assignment Completed,Stockroom Clerk,one,Northeast,Kansas Div,Stark Medical Centre,Stockroom,HN73,,Alicia,Arkansas,23423,United States,
REQ-ADVE-00162,"Bini, Rosser ",7834567812,7837752890,Test+Bin@goringo.com,09/11/2023,Rose Staffing,Risk Rejected,Stockroom Clerk,one,Northeast,Kansas Div,Stark Medical Centre,Stockroom,HN73,,Alicia,Arkansas,23423,United States,
REQ-ADVE-00160,"Dassler, Adolf",9876534757,8764576879,Test+adolf@goringo.com,01/16/2024,Rose Staffing,Withdrawn,ABCO - JT,,South,Div 1,LOC1,"1-3 Years Experience,.NET Framework",h,h,Abanda,Alabama,98765,United States,
REQ-ADVE-00160,"Colgate, William",8763567684,8746789009,Test+william@goringo.com,09/08/2023,Rose Staffing,Rejected,ABCO - JT,,South,Div 1,LOC1,"1-3 Years Experience,.NET Framework",k,k,Abanda,Alabama,87646,United States,
REQ-ADVE-00159,"Romanov, Natasha",8766678989,0654657678,Test+natasha@goringo.com,09/07/2023,MadMax Associates,Assignment Completed,Web Content Designer - CA,one,Northeast,Kansas Div,Stark Medical Centre,Computer Experience,15601 MOORESVILLE RD,,Athens,Alabama,356137308,United States,rate_card_test_div
REQ-ADVE-00158,"Rose, Abby",3214588545,2315648745,Test+test+abbyP@goringo.com,09/07/2023,MadMax Associates,Assignment Completed,ABCO - JT,one,Northeast,Kansas Div,Stark Medical Centre,"1-3 Years Experience,.NET Framework",k,k,Abanda,Alabama,32456,United States,
REQ-ADVE-00157,"Orton, Rendy",2323456789,3333333333,Testrendy@goringo.com,09/05/2023,MadMax Associates,Assignment Completed,Accountant -  CA,one,Northeast,Kansas Div,Stark Medical Centre,Ability to Prioritize,HN23,,Adelanto,California,43234,United States,
REQ-ADVE-00156,"Wells, Joan",,8765435656,test+joanwells@goringo.com,09/04/2023,MadMax Associates,Assignment Completed,ABCO - JT,one,Northeast,Kansas Div,Stark Medical Centre,"1-3 Years Experience,.NET Framework",56,A-St.,Agoura Hills,California,76345,United States,
REQ-ADVE-00156,"Wells, Joan",,8765435656,test+joanwells@goringo.com,09/04/2023,MadMax Associates,Withdrawn,ABCO - JT,one,Northeast,Kansas Div,Stark Medical Centre,"1-3 Years Experience,.NET Framework",56,A-St.,Agoura Hills,California,76345,United States,
REQ-ADVE-00153,"Schitt, Bob",7634567893,6567689098,Test+bob@goringo.com,09/08/2023,Rose Staffing,Assignment Completed,ABCO - JT,,South,Div 1,LOC1,"1-3 Years Experience,.NET Framework",j,j,Abanda,Alabama,87656,United States,
REQ-ADVE-00150,"Dassler, Adolf",9876534757,8764576879,Test+adolf@goringo.com,08/17/2023,Rose Staffing,Withdrawn,ABCO - JT,,South,Div 1,LOC1,"1-3 Years Experience,.NET Framework",h,h,Abanda,Alabama,98765,United States,
REQ-ADVE-00149,"Lara, Brain",8786787878,,Test+BtainCan@goringo.com,09/04/2023,MadMax Associates,Assignment Completed,Site Supervisor,one,Northeast,Kansas Div,Stark Medical Centre," 5 yrs. Experience Minimum,''	Interface with the Talent Acquisition Managers",H,,Agoura Hills,California,76789,United States,
REQ-ADVE-00149,"Castle, Frank",5687987459,4561232465,Test+frank@goringo.com,09/08/2023,MadMax Associates,Withdrawn,Web Content Designer - CA,one,Northeast,Kansas Div,Stark Medical Centre,Computer Experience,y,y,Abanda,Alabama,12324,United States,
REQ-ADVE-00149,"Kurian, Joby",2312345678,5676135965,Test+gfkujk@goringo.com,08/10/2023,MadMax Associates,Withdrawn,ABCO - JT,one,Northeast,Kansas Div,Stark Medical Centre,"1-3 Years Experience,.NET Framework",h,h,Abbeville,Alabama,55468,United States,
REQ-ADVE-00149,"Boucher , Mark ",1235436783,,Test+BouCan@goringo.com,08/11/2023,MadMax Associates,Assignment Completed,ABCO - JT,one,Northeast,Kansas Div,Stark Medical Centre,"1-3 Years Experience,.NET Framework",HN34,,Agoura Hills,California,32456,United States,
REQ-ADVE-00148,"Josel Popp, Franz",,8764678989,Test+franz@goringo.com,08/11/2023,Rose Staffing,Withdrawn,ABCO - JT,,South,Div 1,LOC1,"1-3 Years Experience,.NET Framework","1071 Bergen Street, NY 1",,Brooklyn,New York,11216,United States,
REQ-ADVE-00148,"Schittt, Rolandd",5457889444,8763454444,Test+rolanddd@goringo.com,08/10/2023,Rose Staffing,Assignment Completed,Office Clerk,,South,Div 1,LOC1,Clerical,hhh,hhh,Abanda,Alabama,74444,United States,
REQ-ADVE-00148,"upde, Ver",6278986567,3423456789,Test+upg@goringo.com,08/07/2023,Rose Staffing,Assignment Completed,ABCO - JT,,South,Div 1,LOC1,"1-3 Years Experience,.NET Framework",HN23,,Alma,Arkansas,23123,United States,
REQ-ADVE-00148,"update, version",8967564323,,test+version@goring.com,08/14/2023,Rose Staffing,Rejected,ABCO - JT,,South,Div 1,LOC1,"1-3 Years Experience,.NET Framework",HN23,,Amity,Arkansas,23123,United States,
REQ-ADVE-00147,"Hermes, Sandra",8765344546,9876456456,Test+sandra@goringo.com,08/07/2023,MadMax Associates,Assignment Completed,ABCO - JT,one,Northeast,Kansas Div,Stark Medical Centre,"1-3 Years Experience,.NET Framework",j,j,Abbeville,Alabama,75457,United States,
REQ-ADVE-00147,"Gray, Tessa",,3215467894,Test+test+tessaP@goringo.com,08/01/2023,MadMax Associates,Withdrawn,ABCO - JT,one,Northeast,Kansas Div,Stark Medical Centre,"1-3 Years Experience,.NET Framework",test,,Adamsville,Alabama,32145,United States,
REQ-ADVE-00147,"Hayden, Robert",9879879876,9879879876,Test+hayden@goringo.com,08/04/2023,Core Staffing,Withdrawn,ER Nurse,one,Northeast,Kansas Div,Stark Medical Centre,"BSN,CEN",88 G Street,,Alicia,Arkansas,87655,United States,
REQ-ADVE-00147,"update, version",8967564323,,test+version@goring.com,07/31/2023,MadMax Associates,Assignment Completed,ABCO - JT,one,Northeast,Kansas Div,Stark Medical Centre,"1-3 Years Experience,.NET Framework",HN23,,Amity,Arkansas,23123,United States,
REQ-ADVE-00145,"Kong, King",3453453456,,Testkong@goringo.com,06/22/2023,MadMax Associates,Assignment Completed,ABCO - JT,one,Northeast,Kansas Div,Stark Medical Centre,"1-3 Years Experience,.NET Framework",HN34,,Agoura Hills,California,45345,United States,
REQ-ADVE-00144,"Alleria, Richard",5422324442,2110191111,Test+richard@goringo.com,07/25/2023,Core Staffing,Withdrawn,Accounts Payable Clerk,one,Northeast,Kansas Div,Stark Medical Centre,"Accounts Payable,Code,Outlook",Address 1 - 200 west test,Address 2- 7th Floor,Aguila,Arizona,22232,United States,tag 101
REQ-ADVE-00144,"Knowles, John",1324678898,1265656565,Test+john@goringo.com,06/19/2023,MadMax Associates,Assignment Completed,ABCO - JT,one,Northeast,Kansas Div,Stark Medical Centre,"1-3 Years Experience,.NET Framework",k,k,Abanda,Alabama,35652,United States,
REQ-ADVE-00144,"khjjkjh, lock",3257441244,3878541632,Test+lock@goringo.com,07/05/2023,MadMax Associates,Withdrawn,ABCO - JT,one,Northeast,Kansas Div,Stark Medical Centre,"1-3 Years Experience,.NET Framework",l,l,Abanda,Alabama,03245,United States,
REQ-ADVE-00142,"Page, Larry",8764356775,9874567889,Test+larry@goringo.com,05/26/2023,Rose Staffing,Assignment Completed,ABCO - JT,,South,Div 1,LOC1,"1-3 Years Experience,.NET Framework",k,k,Adamsville,Alabama,87653,United States,
REQ-ADVE-00142,"Dassler, Adolf",9876534757,8764576879,Test+adolf@goringo.com,05/30/2023,Rose Staffing,Assignment Completed,ABCO - JT,,South,Div 1,LOC1,"1-3 Years Experience,.NET Framework",h,h,Abanda,Alabama,98765,United States,
REQ-ADVE-00141,"upde, Ver",6278986567,3423456789,Test+upg@goringo.com,08/23/2023,MadMax Associates,Vendor Presentation Rejected,ABCO - JT,one,Northeast,Kansas Div,Stark Medical Centre,"1-3 Years Experience,.NET Framework",HN23,,Alma,Arkansas,23123,United States,
REQ-ADVE-00141,"Ring, Roman",9090987891,1234233545,Test+ring@goringo.com,08/16/2023,MadMax Associates,Assignment Extended,Accounts Payable Clerk,one,Northeast,Kansas Div,Stark Medical Centre,"Accounts Payable,Code,Outlook",Nashvile,hn67,Aromas,California,10071,United States,
REQ-ADVE-00141,"Knowles, John",1324678898,1265656565,Test+john@goringo.com,05/08/2023,MadMax Associates,Assignment Completed,ABCO - JT,one,Northeast,Kansas Div,Stark Medical Centre,"1-3 Years Experience,.NET Framework",k,k,Abanda,Alabama,35652,United States,
REQ-ADVE-00140,"Test, Lock",2342346521,4564687456,Test+test@goringo.com,05/05/2023,MadMax Associates,Withdrawn,ABCO - JT,one,Northeast,Kansas Div,Stark Medical Centre,"1-3 Years Experience,.NET Framework",t,t,Akiachak,Alaska,23452,United States,
REQ-ADVE-00139,"Jobs, Steve",4567875678,9876534657,Test+steve@goringo.com,04/26/2023,Rose Staffing,Assignment Completed,ABCO - JT,one,Northeast,South West ,Front site,"1-3 Years Experience,.NET Framework",k,k,Ak-Chin Village,Arizona,98765,United States,
REQ-ADVE-00139,"Puth, Charlie",4353535455,,Test+c@goringo.com,01/01/1970,Epic Staffing,Withdrawn,Customer Service Representative,one,Northeast,South West ,Front site,"Patient,Organized,Computer Literate",a,,Alabaster,Alabama,87989,United States,
REQ-ADVE-00137,"Dassler, Adolf",9876534757,8764576879,Test+adolf@goringo.com,04/26/2023,Rose Staffing,Assignment Completed,ABCO - JT,,South,Div 1,LOC1,"1-3 Years Experience,.NET Framework",h,h,Abanda,Alabama,98765,United States,
REQ-ADVE-00137,"taiw, Atat",6453333333,2222222222,sgqgs@gmail.com,04/19/2023,Rose Staffing,Assignment Completed,ABCO - JT,,South,Div 1,LOC1,"1-3 Years Experience,.NET Framework",Addresss1,Addressd2,Adamsville,Alabama,22222,United States,
REQ-ADVE-00136,"Cummins, Pat",5635467876,,Test+Pat@goringo.com,04/17/2023,Rose Staffing,Assignment Completed,Accounts Payable Clerk,,South,Div 1,LOC1,"Accounts Payable,Code,Outlook",Hn34,,Blue Hills,Connecticut,34234,United States,
REQ-ADVE-00134,"Cummins, Pat",5635467876,,Test+Pat@goringo.com,04/12/2023,Rose Staffing,Assignment Completed,Accounts Payable Clerk,one,Northeast,South West ,Front site,"Accounts Payable,Code,Outlook",Hn34,,Blue Hills,Connecticut,34234,United States,
REQ-ADVE-00134,"taiw, Atat",6453333333,2222222222,sgqgs@gmail.com,04/21/2023,Epic Staffing,Assignment Completed,ABCO - JT,one,Northeast,South West ,Front site,"1-3 Years Experience,.NET Framework",Addresss1,Addressd2,Adamsville,Alabama,22222,United States,
REQ-ADVE-00134,"Fury, Nick",,7654334567,test@goringo.com,04/14/2023,Rose Staffing,Rejected,Accountant -  CA,one,Northeast,South West ,Front site,Ability to Prioritize,r,,Alamosa,Colorado,23455,United States,
REQ-ADVE-00134,"Nelson, Foggy",3242433133,0987665345,Test+foggy@goringo.com,05/04/2023,Epic Staffing,Withdrawn,Web Content Designer - CA,one,Northeast,South West ,Front site,Computer Experience,y,,Abanda,Alabama,87646,United States,
REQ-ADVE-00132,"Crag, Daniel ",6784567890,,Test+Daniel@goringo.com,04/10/2023,Rose Staffing,Assignment Completed,ABCO - JT,one,Northeast,Kansas Div,Stark Medical Centre,"1-3 Years Experience,.NET Framework",HN456,,Adin,California,45645,United States,
REQ-ADVE-00128,"Nelson, Foggy",3242433133,0987665345,Test+foggy@goringo.com,03/31/2023,MadMax Associates,Name Not Cleared,Web Content Designer - CA,one,Northeast,Kansas Div,Stark Medical Centre,Computer Experience,y,,Abanda,Alabama,87646,United States,
REQ-ADVE-00128,"Gibbs, Herschelle",1234546578,,Test+GibbsCan@goringo.com,03/31/2023,MadMax Associates,Rejected,ABCO - JT,one,Northeast,Kansas Div,Stark Medical Centre,"1-3 Years Experience,.NET Framework",AD12,ad,Acampo,California,24563,United States,
REQ-ADVE-00128,"Dassler, Adolf",9876534757,8764576879,Test+adolf@goringo.com,03/07/2023,Rose Staffing,Withdrawn,ABCO - JT,one,Northeast,Kansas Div,Stark Medical Centre,"1-3 Years Experience,.NET Framework",h,h,Abanda,Alabama,98765,United States,
REQ-ADVE-00128,"Ginsberg, Allen ",8788768990,8798989988,Test+friga@goringo.com,04/18/2023,Core Staffing,Withdrawn,LPN-Allied,one,Northeast,Kansas Div,Stark Medical Centre,"Hospital experience,2 yr. degree,Medical Knowledge",9 H Drive,,Kennedy,New York,98808,United States,
REQ-ADVE-00128,"Dassler, Adolf",9876534757,8764576879,Test+adolf@goringo.com,03/07/2023,Rose Staffing,Withdrawn,ABCO - JT,one,Northeast,Kansas Div,Stark Medical Centre,"1-3 Years Experience,.NET Framework",h,h,Abanda,Alabama,98765,United States,
REQ-ADVE-00128,"Brin, Sergey",6543456786,9876556576,Test+sergey@goringo.com,03/07/2023,Rose Staffing,Withdrawn,ABCO - JT,one,Northeast,Kansas Div,Stark Medical Centre,"1-3 Years Experience,.NET Framework",k,k,Abanda,Alabama,76545,United States,
REQ-ADVE-00128,"khjjkjh, lock",3257441244,3878541632,Test+lock@goringo.com,03/17/2023,MadMax Associates,Withdrawn,ABCO - JT,one,Northeast,Kansas Div,Stark Medical Centre,"1-3 Years Experience,.NET Framework",l,l,Abanda,Alabama,03245,United States,
REQ-ADVE-00128,"Pitt, Brad",3434343434,5555555555,test+brad@goringo.com,03/20/2023,MadMax Associates,Withdrawn,Administrative Assistant,one,Northeast,Kansas Div,Stark Medical Centre,"Clerical,MS Outlook,WordPerfect,Computer Experience",12 Hn,14 HN ,Alexander,Arkansas,56565,United States,
REQ-ADVE-00128,"Diesel, Win",5345465758,,Test+Wnicand@goringo.com,03/20/2023,MadMax Associates,Withdrawn,ABCO - JT,one,Northeast,Kansas Div,Stark Medical Centre,"1-3 Years Experience,.NET Framework",E123,B23,Alma,Arkansas,24356,United States,
REQ-ADVE-00128,"Rose, Abby",3214588545,2315648745,Test+test+abbyP@goringo.com,01/01/1970,MadMax Associates,Withdrawn,ABCO - JT,one,Northeast,Kansas Div,Stark Medical Centre,"1-3 Years Experience,.NET Framework",k,k,Abanda,Alabama,32456,United States,
REQ-ADVE-00128,"Fury, Nick",,7654334567,test@goringo.com,03/20/2023,MadMax Associates,Assignment Completed,Accountant -  CA,one,Northeast,Kansas Div,Stark Medical Centre,Ability to Prioritize,r,,Alamosa,Colorado,23455,United States,
REQ-ADVE-00128,"Gibbs, Herschelle",1234546578,,Test+GibbsCan@goringo.com,03/20/2023,MadMax Associates,Withdrawn,ABCO - JT,one,Northeast,Kansas Div,Stark Medical Centre,"1-3 Years Experience,.NET Framework",AD12,ad,Acampo,California,24563,United States,
REQ-ADVE-00128,"khjjkjh, lock",3257441244,3878541632,Test+lock@goringo.com,03/17/2023,MadMax Associates,Withdrawn,ABCO - JT,one,Northeast,Kansas Div,Stark Medical Centre,"1-3 Years Experience,.NET Framework",l,l,Abanda,Alabama,03245,United States,
REQ-ADVE-00128,"Nelson, Foggy",3242433133,0987665345,Test+foggy@goringo.com,03/17/2023,MadMax Associates,Withdrawn,Web Content Designer - CA,one,Northeast,Kansas Div,Stark Medical Centre,Computer Experience,y,,Abanda,Alabama,87646,United States,
REQ-ADVE-00128,"Walker, Allan",3454768878,4458809090,Test+wewer@goringo.com,03/31/2023,MadMax Associates,Withdrawn,Senior Contracts Rep - CA,one,Northeast,Kansas Div,Stark Medical Centre,Excellent Follow-up Skills,t,,Abanda,Alabama,56566,United States,"Test,nurse"
REQ-ADVE-00127,"Martin, Bob",1234567891,8897879798,Test+bob@goringo.com,04/21/2023,MadMax Associates,Assignment Completed,CRNA,one,Northeast,Kansas Div,Stark Medical Centre,"Anesthesia preparation and administration,Patient Assessment",312 Roads,,New York City,New York,10198,United States,
REQ-ADVE-00127,"Rejected, Risk",3214784569,3544545457,Test+risk@goringo.com,04/04/2023,MadMax Associates,Vendor Presentation Rejected,ABCO - JT,one,Northeast,Kansas Div,Stark Medical Centre,"1-3 Years Experience,.NET Framework",h,h,Abanda,Alabama,01354,United States,
REQ-ADVE-00127,"Nyongo, Lupita",,5686568964,Test+lupita@goringo.com,04/05/2023,MadMax Associates,Risk Rejected,ABCO - JT,one,Northeast,Kansas Div,Stark Medical Centre,"1-3 Years Experience,.NET Framework",h,h,Abanda,Alabama,12457,United States,
REQ-ADVE-00126,"Urich, Ben",5656456789,4567898765,Test+ben@goringo.com,02/17/2023,MadMax Associates,Withdrawn,Web Content Designer - CA,one,Northeast,Kansas Div,Stark Medical Centre,Computer Experience,Address 1,Address 2,Addison,Illinois,76445,United States,
REQ-ADVE-00126,"Potts, Pepper",3412321245,5645768798,Test+fghjkl@goringo.com,02/20/2023,MadMax Associates,Assignment Completed,Web Content Designer - CA,one,Northeast,Kansas Div,Stark Medical Centre,Computer Experience,h,,Abanda,Alabama,87656,United States,
REQ-ADVE-00126,"Knowles, John",1324678898,1265656565,Test+john@goringo.com,02/19/2023,MadMax Associates,Assignment Completed,ABCO - JT,one,Northeast,Kansas Div,Stark Medical Centre,"1-3 Years Experience,.NET Framework",k,k,Abanda,Alabama,35652,United States,
REQ-ADVE-00126,"Knowles, John",1324678898,1265656565,Test+john@goringo.com,02/20/2023,MadMax Associates,Withdrawn,ABCO - JT,one,Northeast,Kansas Div,Stark Medical Centre,"1-3 Years Experience,.NET Framework",k,k,Abanda,Alabama,35652,United States,
REQ-ADVE-00125,"Bezos, Jeff",5678657867,7655678903,Test+jeff@goringo.com,02/16/2023,Rose Staffing,Assignment Completed,ABCO - JT,,South,Div 1,LOC1,"1-3 Years Experience,.NET Framework",k,k,Abanda,Alabama,76567,United States,
REQ-ADVE-00124,"Gray, Tessa",,3215467894,Test+test+tessaP@goringo.com,02/15/2023,MadMax Associates,Assignment Extended,ABCO - JT,one,Northeast,Kansas Div,Stark Medical Centre,"1-3 Years Experience,.NET Framework",test,,Adamsville,Alabama,32145,United States,
REQ-ADVE-00124,"Diesel, Win",5345465758,,Test+Wnicand@goringo.com,02/21/2023,MadMax Associates,Assignment Completed,ABCO - JT,one,Northeast,Kansas Div,Stark Medical Centre,"1-3 Years Experience,.NET Framework",E123,B23,Alma,Arkansas,24356,United States,
REQ-ADVE-00123,"Castle, Frank",5687987459,4561232465,Test+frank@goringo.com,02/14/2023,MadMax Associates,Assignment Completed,Web Content Designer - CA,one,Northeast,Kansas Div,Stark Medical Centre,Computer Experience,y,y,Abanda,Alabama,12324,United States,
REQ-ADVE-00123,"Knowles, John",1324678898,1265656565,Test+john@goringo.com,02/14/2023,MadMax Associates,Withdrawn,ABCO - JT,one,Northeast,Kansas Div,Stark Medical Centre,"1-3 Years Experience,.NET Framework",k,k,Abanda,Alabama,35652,United States,
REQ-ADVE-00123,"Urich, Ben",5656456789,4567898765,Test+ben@goringo.com,01/01/1970,MadMax Associates,Withdrawn,Web Content Designer - CA,one,Northeast,Kansas Div,Stark Medical Centre,Computer Experience,Address 1,Address 2,Addison,Illinois,76445,United States,
REQ-ADVE-00123,"crak, jack",5353723737,6593760372,jack@gmail.com,02/14/2023,MadMax Associates,Withdrawn,Administration Clerk,one,Northeast,Kansas Div,Stark Medical Centre,Data Entry,zoo,vvk,New Kingman-Butler,Arizona,46853,United States,
REQ-ADVE-00123,"Knowles, John",1324678898,1265656565,Test+john@goringo.com,02/15/2023,MadMax Associates,Assignment Completed,ABCO - JT,one,Northeast,Kansas Div,Stark Medical Centre,"1-3 Years Experience,.NET Framework",k,k,Abanda,Alabama,35652,United States,
REQ-ADVE-00123,"Grey, Tessa",8756875323,8765345678,test+tessa@goringo.com,02/15/2023,MadMax Associates,Offer Rejected,ABCO - JT,one,Northeast,Kansas Div,Stark Medical Centre,"1-3 Years Experience,.NET Framework",Add 1,Add 2,Akron,Alabama,97565,United States,
REQ-ADVE-00122,"Castle, Frank",5687987459,4561232465,Test+frank@goringo.com,02/20/2023,MadMax Associates,Withdrawn,Web Content Designer - CA,one,Northeast,Kansas Div,Stark Medical Centre,Computer Experience,y,y,Abanda,Alabama,12324,United States,
REQ-ADVE-00122,"Nelson, Foggy",3242433133,0987665345,Test+foggy@goringo.com,02/13/2023,MadMax Associates,Assignment Completed,Web Content Designer - CA,one,Northeast,Kansas Div,Stark Medical Centre,Computer Experience,y,,Abanda,Alabama,87646,United States,
REQ-ADVE-00121,"Gibbs, Herschelle",1234546578,,Test+GibbsCan@goringo.com,02/21/2023,MadMax Associates,Assignment Completed,ABCO - JT,one,Northeast,Kansas Div,Stark Medical Centre,"1-3 Years Experience,.NET Framework",AD12,ad,Acampo,California,24563,United States,
REQ-ADVE-00121,"cand, new",8989898980,,test+new@goringo.com,03/17/2023,MadMax Associates,Withdrawn,Administration Clerk,one,Northeast,Kansas Div,Stark Medical Centre,Data Entry,h,,Agoura Hills,California,88888,United States,
REQ-ADVE-00121,"Satyen, Swati",9876645654,9787645767,Test+swati@goringo.com,02/13/2023,Lily Staffing,Rejected,ABCO - JT,one,Northeast,Kansas Div,Stark Medical Centre,"1-3 Years Experience,.NET Framework",i,i,Abanda,Alabama,98765,United States,
REQ-ADVE-00121,"Joshi, Chetan",7646234853,6535657442,test+joshii@goringo.com,03/20/2023,MadMax Associates,Assignment Completed,ABCO - JT,one,Northeast,Kansas Div,Stark Medical Centre,"1-3 Years Experience,.NET Framework",u,u,Abanda,Alabama,65346,United States,
REQ-ADVE-00120,"Potts, Pepper",3412321245,5645768798,Test+fghjkl@goringo.com,02/08/2023,MadMax Associates,Assignment Completed,Web Content Designer - CA,one,Northeast,Kansas Div,Stark Medical Centre,Computer Experience,h,,Abanda,Alabama,87656,United States,
REQ-ADVE-00120,"Rose, Abby",3214588545,2315648745,Test+test+abbyP@goringo.com,02/13/2023,MadMax Associates,Assignment Completed,ABCO - JT,one,Northeast,Kansas Div,Stark Medical Centre,"1-3 Years Experience,.NET Framework",k,k,Abanda,Alabama,32456,United States,
REQ-ADVE-00120,"Pitt, Brad",3434343434,5555555555,test+brad@goringo.com,02/09/2023,MadMax Associates,Withdrawn,Administrative Assistant,one,Northeast,Kansas Div,Stark Medical Centre,"Clerical,MS Outlook,WordPerfect,Computer Experience",12 Hn,14 HN ,Alexander,Arkansas,56565,United States,
REQ-ADVE-00119,"Josel Popp, Franz",,8764678989,Test+franz@goringo.com,02/08/2023,Rose Staffing,Assignment Completed,ABCO - JT,,South,Div 1,LOC1,"1-3 Years Experience,.NET Framework","1071 Bergen Street, NY 1",,Brooklyn,New York,11216,United States,
REQ-ADVE-00119,"Dassler, Adolf",9876534757,8764576879,Test+adolf@goringo.com,02/03/2023,Rose Staffing,Assignment Completed,ABCO - JT,,South,Div 1,LOC1,"1-3 Years Experience,.NET Framework",h,h,Abanda,Alabama,98765,United States,
REQ-ADVE-00119,"Dassler, Adolf",9876534757,8764576879,Test+adolf@goringo.com,02/03/2023,Rose Staffing,Assignment Completed,ABCO - JT,,South,Div 1,LOC1,"1-3 Years Experience,.NET Framework",h,h,Abanda,Alabama,98765,United States,
REQ-ADVE-00119,"Brin, Sergey",6543456786,9876556576,Test+sergey@goringo.com,02/03/2023,Rose Staffing,Withdrawn,ABCO - JT,,South,Div 1,LOC1,"1-3 Years Experience,.NET Framework",k,k,Abanda,Alabama,76545,United States,
REQ-ADVE-00118,"Boucher , Mark ",1235436783,,Test+BouCan@goringo.com,02/21/2023,Epic Staffing,Assignment Completed,ABCO - JT,one,Northeast,South West ,Front site,"1-3 Years Experience,.NET Framework",HN34,,Agoura Hills,California,32456,United States,
REQ-ADVE-00118,"nam, sam",4444444343,5653333333,test+sa@gmail.com,02/03/2023,Epic Staffing,Assignment Completed,ABCO - JT,one,Northeast,South West ,Front site,"1-3 Years Experience,.NET Framework",HN-54,tttt,Alicia,Arkansas,34567,United States,
REQ-ADVE-00118,"Pratt, Chris ",3245678908,2345678978,Test+chris@svam.com,02/15/2023,Epic Staffing,Assignment Completed,ABCO - JT,one,Northeast,South West ,Front site,"1-3 Years Experience,.NET Framework",HN23,House No34,Allport,Arkansas,23456,United States,
REQ-ADVE-00118,"Crag, Daniel ",6784567890,,Test+Daniel@goringo.com,04/10/2023,Epic Staffing,Assignment Completed,ABCO - JT,one,Northeast,South West ,Front site,"1-3 Years Experience,.NET Framework",HN456,,Adin,California,45645,United States,
REQ-ADVE-00117,"Page, Larry",8764356775,9874567889,Test+larry@goringo.com,01/30/2023,Rose Staffing,Assignment Completed,ABCO - JT,one,Northeast,South West ,Front site,"1-3 Years Experience,.NET Framework",k,k,Adamsville,Alabama,87653,United States,
REQ-ADVE-00117,"nam, sam",4444444343,5653333333,test+sa@gmail.com,01/30/2023,Epic Staffing,Withdrawn,ABCO - JT,one,Northeast,South West ,Front site,"1-3 Years Experience,.NET Framework",HN-54,tttt,Alicia,Arkansas,34567,United States,
REQ-ADVE-00117,"Pratt, Chris ",3245678908,2345678978,Test+chris@svam.com,01/31/2023,Epic Staffing,Withdrawn,ABCO - JT,one,Northeast,South West ,Front site,"1-3 Years Experience,.NET Framework",HN23,House No34,Allport,Arkansas,23456,United States,
REQ-ADVE-00117,"liam, jack",9876789800,,test+tiiwariiatul@gmail.com,01/29/2023,Epic Staffing,Assignment Completed,Assistant Buyer,one,Northeast,South West ,Front site,Assistant Buyer,HN62,,Allport,Arkansas,345234567,United States,
REQ-ADVE-00116,"Potts, Pepper",3412321245,5645768798,Test+fghjkl@goringo.com,01/30/2023,MadMax Associates,Withdrawn,Web Content Designer - CA,one,Northeast,Kansas Div,Stark Medical Centre,Computer Experience,h,,Abanda,Alabama,87656,United States,
REQ-ADVE-00116,"Lara, Brain",8786787878,,Test+BtainCan@goringo.com,10/25/2023,MadMax Associates,Withdrawn,Site Supervisor,one,Northeast,Kansas Div,Stark Medical Centre," 5 yrs. Experience Minimum,''	Interface with the Talent Acquisition Managers",H,,Agoura Hills,California,76789,United States,
REQ-ADVE-00116,"Pitt, Brad",3434343434,5555555555,test+brad@goringo.com,01/27/2023,MadMax Associates,Withdrawn,Administrative Assistant,one,Northeast,Kansas Div,Stark Medical Centre,"Clerical,MS Outlook,WordPerfect,Computer Experience",12 Hn,14 HN ,Alexander,Arkansas,56565,United States,
REQ-ADVE-00116,"Morey, Kiran",,3423233222,Test+kk@goringo.com,09/09/2023,MadMax Associates,Name Not Cleared,Accounts Payable Clerk,one,Northeast,Kansas Div,Stark Medical Centre,"Accounts Payable,Code,Outlook",Test Address,2143323 Test,Bridgeport,Connecticut,10016,United States,
REQ-ADVE-00116,"Hermes, Sandra",8765344546,9876456456,Test+sandra@goringo.com,01/30/2023,MadMax Associates,Assignment Completed,ABCO - JT,one,Northeast,Kansas Div,Stark Medical Centre,"1-3 Years Experience,.NET Framework",j,j,Abbeville,Alabama,75457,United States,
REQ-ADVE-00116,"crak, jack",5353723737,6593760372,jack@gmail.com,01/03/2024,MadMax Associates,Rejected,Administration Clerk,one,Northeast,Kansas Div,Stark Medical Centre,Data Entry,zoo,vvk,New Kingman-Butler,Arizona,46853,United States,
REQ-ADVE-00116,"Page, Larry",8764356775,9874567889,Test+larry@goringo.com,01/27/2023,Rose Staffing,Assignment Completed,ABCO - JT,one,Northeast,Kansas Div,Stark Medical Centre,"1-3 Years Experience,.NET Framework",k,k,Adamsville,Alabama,87653,United States,
REQ-ADVE-00116,"Lara, Brain",8786787878,,Test+BtainCan@goringo.com,10/25/2023,MadMax Associates,Withdrawn,Site Supervisor,one,Northeast,Kansas Div,Stark Medical Centre," 5 yrs. Experience Minimum,''	Interface with the Talent Acquisition Managers",H,,Agoura Hills,California,76789,United States,
REQ-ADVE-00116,"Lara, Brain",8786787878,,Test+BtainCan@goringo.com,10/25/2023,MadMax Associates,Withdrawn,Site Supervisor,one,Northeast,Kansas Div,Stark Medical Centre," 5 yrs. Experience Minimum,''	Interface with the Talent Acquisition Managers",H,,Agoura Hills,California,76789,United States,
REQ-ADVE-00116,"Josel Popp, Franz",,8764678989,Test+franz@goringo.com,01/01/1970,Rose Staffing,Withdrawn,ABCO - JT,one,Northeast,Kansas Div,Stark Medical Centre,"1-3 Years Experience,.NET Framework","1071 Bergen Street, NY 1",,Brooklyn,New York,11216,United States,
REQ-ADVE-00115,"Schitt, Twyla",7654567765,8754356768,Test+twyla@goringo.com,01/30/2023,Rose Staffing,Assignment Completed,ABCO - JT,,South,Div 1,LOC1,"1-3 Years Experience,.NET Framework",j,j,Alamo Lake,Arizona,32444,United States,
REQ-ADVE-00115,"Bezos, Jeff",5678657867,7655678903,Test+jeff@goringo.com,01/30/2023,Rose Staffing,Withdrawn,ABCO - JT,,South,Div 1,LOC1,"1-3 Years Experience,.NET Framework",k,k,Abanda,Alabama,76567,United States,
REQ-ADVE-00107,"taiw, Atat",6453333333,2222222222,sgqgs@gmail.com,12/28/2022,MadMax Associates,Assignment Completed,ABCO - JT,one,Northeast,Kansas Div,Stark Medical Centre,"1-3 Years Experience,.NET Framework",Addresss1,Addressd2,Adamsville,Alabama,22222,United States,
REQ-ADVE-00101,"Pitt, Brad",3434343434,5555555555,test+brad@goringo.com,12/26/2022,MadMax Associates,Rejected,Administrative Assistant,one,Northeast,Kansas Div,Stark Medical Centre,"Clerical,MS Outlook,WordPerfect,Computer Experience",12 Hn,14 HN ,Alexander,Arkansas,56565,United States,
REQ-ADVE-00101,"taiw, Atat",6453333333,2222222222,sgqgs@gmail.com,12/26/2022,MadMax Associates,Withdrawn,ABCO - JT,one,Northeast,Kansas Div,Stark Medical Centre,"1-3 Years Experience,.NET Framework",Addresss1,Addressd2,Adamsville,Alabama,22222,United States,
REQ-ADVE-00090,"Romanov, Natasha",8766678989,0654657678,Test+natasha@goringo.com,12/09/2022,MadMax Associates,Assignment Completed,Web Content Designer - CA,one,Northeast,Kansas Div,Stark Medical Centre,Computer Experience,15601 MOORESVILLE RD,,Athens,Alabama,356137308,United States,rate_card_test_div
REQ-ADVE-00089,"crak, jack",5353723737,6593760372,jack@gmail.com,12/07/2022,MadMax Associates,Assignment Completed,Administration Clerk,one,Northeast,South West ,Front site,Data Entry,zoo,vvk,New Kingman-Butler,Arizona,46853,United States,
REQ-ADVE-00089,"share, ffhg",3257213101,2357543213,Test+erw@goringo.com,02/03/2024,MadMax Associates,Assignment Extended,ABCO - JT,one,Northeast,South West ,Front site,"1-3 Years Experience,.NET Framework",l,l,Akron,Alabama,32501,United States,
REQ-ADVE-00089,"Grey, Tessa",8756875323,8765345678,test+tessa@goringo.com,06/10/2024,MadMax Associates,Pending Credentialing,ABCO - JT,one,Northeast,South West ,Front site,"1-3 Years Experience,.NET Framework",Add 1,Add 2,Akron,Alabama,97565,United States,
REQ-ADVE-00083,"crak, jack",5353723737,6593760372,jack@gmail.com,12/02/2022,MadMax Associates,Withdrawn,Administration Clerk,one,Northeast,South West ,Old town ,Data Entry,zoo,vvk,New Kingman-Butler,Arizona,46853,United States,
REQ-ADVE-00081,"liam, jack",9876789800,,test+tiiwariiatul@gmail.com,11/25/2022,MadMax Associates,Assignment Completed,Assistant Buyer,one,Northeast,South West ,Front site,Assistant Buyer,HN62,,Allport,Arkansas,345234567,United States,
REQ-ADVE-00081,"liam, jack",9876789800,,test+tiiwariiatul@gmail.com,02/26/2024,MadMax Associates,Interview Stage In-progress,Assistant Buyer,one,Northeast,South West ,Front site,Assistant Buyer,HN62,,Allport,Arkansas,345234567,United States,
REQ-ADVE-00081,"cand, new",8989898980,,test+new@goringo.com,11/30/2022,MadMax Associates,Client Presentation Rejected,Administration Clerk,one,Northeast,South West ,Front site,Data Entry,h,,Agoura Hills,California,88888,United States,
REQ-ADVE-00080,"taiw, Atat",6453333333,2222222222,sgqgs@gmail.com,11/25/2022,MadMax Associates,Withdrawn,ABCO - JT,,South,Kentucky Div,Wilkenson Hospital,"1-3 Years Experience,.NET Framework",Addresss1,Addressd2,Adamsville,Alabama,22222,United States,
REQ-ADVE-00074,"Romanov, Natasha",8766678989,0654657678,Test+natasha@goringo.com,11/18/2022,MadMax Associates,Assignment Completed,Web Content Designer - CA,one,Northeast,Kansas Div,Stark Medical Centre,Computer Experience,15601 MOORESVILLE RD,,Athens,Alabama,356137308,United States,rate_card_test_div
REQ-ADVE-00074,"Pitt, Brad",3434343434,5555555555,test+brad@goringo.com,11/18/2022,MadMax Associates,Client Presentation Rejected,Administrative Assistant,one,Northeast,Kansas Div,Stark Medical Centre,"Clerical,MS Outlook,WordPerfect,Computer Experience",12 Hn,14 HN ,Alexander,Arkansas,56565,United States,
REQ-ADVE-00074,"taiw, Atat",6453333333,2222222222,sgqgs@gmail.com,11/25/2022,MadMax Associates,Withdrawn,ABCO - JT,one,Northeast,Kansas Div,Stark Medical Centre,"1-3 Years Experience,.NET Framework",Addresss1,Addressd2,Adamsville,Alabama,22222,United States,
REQ-ADVE-00074,"share, ffhg",3257213101,2357543213,Test+erw@goringo.com,11/18/2022,MadMax Associates,Assignment Completed,ABCO - JT,one,Northeast,Kansas Div,Stark Medical Centre,"1-3 Years Experience,.NET Framework",l,l,Akron,Alabama,32501,United States,
REQ-ADVE-00069,"Pitt, Brad",3434343434,5555555555,test+brad@goringo.com,11/10/2022,MadMax Associates,Assignment Completed,Administrative Assistant,one,Northeast,South West ,Front site,"Clerical,MS Outlook,WordPerfect,Computer Experience",12 Hn,14 HN ,Alexander,Arkansas,56565,United States,
REQ-ADVE-00068,"taiw, Atat",6453333333,2222222222,sgqgs@gmail.com,11/25/2022,MadMax Associates,Withdrawn,ABCO - JT,one,Northeast,Kansas Div,Stark Medical Centre,"1-3 Years Experience,.NET Framework",Addresss1,Addressd2,Adamsville,Alabama,22222,United States,
REQ-ADVE-00066,"Urich, Ben",5656456789,4567898765,Test+ben@goringo.com,12/13/2022,MadMax Associates,Rejected,Web Content Designer - CA,one,Northeast,Kansas Div,Stark Medical Centre,Computer Experience,Address 1,Address 2,Addison,Illinois,76445,United States,
REQ-ADVE-00062,"Pitt, Brad",3434343434,5555555555,test+brad@goringo.com,10/27/2022,MadMax Associates,Assignment Completed,Administrative Assistant,one,Northeast,Kansas Div,Stark Medical Centre,"Clerical,MS Outlook,WordPerfect,Computer Experience",12 Hn,14 HN ,Alexander,Arkansas,56565,United States,
REQ-ADVE-00057,"Knowles, John",1324678898,1265656565,Test+john@goringo.com,10/18/2022,MadMax Associates,Withdrawn,ABCO - JT,one,Northeast,South West ,Old town ,"1-3 Years Experience,.NET Framework",k,k,Abanda,Alabama,35652,United States,
REQ-ADVE-00053,"crak, jack",5353723737,6593760372,jack@gmail.com,10/12/2022,MadMax Associates,Assignment Completed,Administration Clerk,one,Northeast,South West ,Old town ,Data Entry,zoo,vvk,New Kingman-Butler,Arizona,46853,United States,
REQ-ADVE-00052,"Rocky , Rock",5466677767,7493974644,Test+rock@goringo.com,10/11/2022,Lily Staffing,Assignment Completed,Administration Clerk,one,Northeast,Kansas Div,Stark Medical Centre,Data Entry,Hn@77373,HN @6373,Alamosa,Colorado,89876,United States,
REQ-ADVE-00052,"Tiwari, Atul",6282272827,6464646464,Test+atlt@goringo.com,10/11/2022,Lily Staffing,Assignment Completed,Administrative Assistant,one,Northeast,Kansas Div,Stark Medical Centre,"Clerical,MS Outlook,WordPerfect,Computer Experience",a,b,Adamsville,Alabama,864746888,United States,
REQ-ADVE-00050,"taiw, Atat",6453333333,2222222222,sgqgs@gmail.com,09/28/2022,MadMax Associates,Assignment Completed,ABCO - JT,one,Northeast,Kansas Div,Stark Medical Centre,"1-3 Years Experience,.NET Framework",Addresss1,Addressd2,Adamsville,Alabama,22222,United States,
REQ-ADVE-00049,"Green, John",2654897896,6568989898,Test+john@goringo.com,09/28/2022,Lily Staffing,Assignment Completed,ABCO - JT,one,Northeast,Kansas Div,Stark Medical Centre,"1-3 Years Experience,.NET Framework",t,t,Abanda,Alabama,15465,United States,
REQ-ADVE-00049,"taiw, Atat",6453333333,2222222222,sgqgs@gmail.com,09/28/2022,MadMax Associates,Assignment Completed,ABCO - JT,one,Northeast,Kansas Div,Stark Medical Centre,"1-3 Years Experience,.NET Framework",Addresss1,Addressd2,Adamsville,Alabama,22222,United States,
REQ-ADVE-00049,"Knowles, John",1324678898,1265656565,Test+john@goringo.com,02/08/2023,MadMax Associates,Withdrawn,ABCO - JT,one,Northeast,Kansas Div,Stark Medical Centre,"1-3 Years Experience,.NET Framework",k,k,Abanda,Alabama,35652,United States,
REQ-ADVE-00048,"Mathew, Josh",2343454643,5456465679,Test+tetqwew@goringo.com,09/27/2022,MadMax Associates,Withdrawn,ABCO - JT,one,Northeast,Kansas Div,Stark Medical Centre,"1-3 Years Experience,.NET Framework",j,j,Abanda,Alabama,23656,United States,
REQ-ADVE-00047,"Mathew, Josh",2343454643,5456465679,Test+tetqwew@goringo.com,09/27/2022,MadMax Associates,Assignment Completed,ABCO - JT,one,Northeast,Kansas Div,Stark Medical Centre,"1-3 Years Experience,.NET Framework",j,j,Abanda,Alabama,23656,United States,
REQ-ADVE-00042,"taiw, Atat",6453333333,2222222222,sgqgs@gmail.com,09/18/2022,MadMax Associates,Assignment Completed,ABCO - JT,one,Northeast,Kansas Div,Stark Medical Centre,"1-3 Years Experience,.NET Framework",Addresss1,Addressd2,Adamsville,Alabama,22222,United States,
REQ-ADVE-00042,"Brooks, Gwendolyn",9090909090,9090909090,Test+qwert@goringo.com,09/18/2022,Core Staffing,Withdrawn,Anesthesiologist ? Neuroanesthesia,one,Northeast,Kansas Div,Stark Medical Centre,Board Certified,600 F Street,,Los Angeles,California,43544,United States,
REQ-ADVE-00040,"Mathew, Josh",2343454643,5456465679,Test+tetqwew@goringo.com,09/20/2022,MadMax Associates,Withdrawn,ABCO - JT,one,Northeast,Kansas Div,Stark Medical Centre,"1-3 Years Experience,.NET Framework",j,j,Abanda,Alabama,23656,United States,
REQ-ADVE-00039,"Tiwari, Atul",6282272827,6464646464,Test+atlt@goringo.com,09/15/2022,Lily Staffing,Withdrawn,Administrative Assistant,one,Northeast,Kansas Div,Stark Medical Centre,"Clerical,MS Outlook,WordPerfect,Computer Experience",a,b,Adamsville,Alabama,864746888,United States,
REQ-ADVE-00039,"crak, jack",5353723737,6593760372,jack@gmail.com,09/15/2022,MadMax Associates,Withdrawn,Administration Clerk,one,Northeast,Kansas Div,Stark Medical Centre,Data Entry,zoo,vvk,New Kingman-Butler,Arizona,46853,United States,
REQ-ADVE-00038,"Pitt, Brad",3434343434,5555555555,test+brad@goringo.com,09/15/2022,MadMax Associates,Assignment Completed,Administrative Assistant,one,Northeast,Kansas Div,Stark Medical Centre,"Clerical,MS Outlook,WordPerfect,Computer Experience",12 Hn,14 HN ,Alexander,Arkansas,56565,United States,
REQ-ADVE-00038,"Walker, Allan",3454768878,4458809090,Test+wewer@goringo.com,09/27/2022,MadMax Associates,Withdrawn,Senior Contracts Rep - CA,one,Northeast,Kansas Div,Stark Medical Centre,Excellent Follow-up Skills,t,,Abanda,Alabama,56566,United States,"Test,nurse"
REQ-ADVE-00037,"crak, jack",5353723737,6593760372,jack@gmail.com,09/12/2022,MadMax Associates,Assignment Completed,Administration Clerk,one,Northeast,Kansas Div,Stark Medical Centre,Data Entry,zoo,vvk,New Kingman-Butler,Arizona,46853,United States,
REQ-ADVE-00036,"taiw, Atat",6453333333,2222222222,sgqgs@gmail.com,09/09/2022,MadMax Associates,Assignment Completed,ABCO - JT,,South,Kentucky Div,Wilkenson Hospital,"1-3 Years Experience,.NET Framework",Addresss1,Addressd2,Adamsville,Alabama,22222,United States,
REQ-ADVE-00036,"Raph, Remy",1234332534,9876435678,test+dmormon@goringo.com,09/09/2022,MadMax Associates,Assignment Completed,ABCO - JT,,South,Kentucky Div,Wilkenson Hospital,"1-3 Years Experience,.NET Framework",test,,Agoura Hills,California,08778,United States,
REQ-ADVE-00035,"Raph, Remy",1234332534,9876435678,test+dmormon@goringo.com,09/08/2022,MadMax Associates,Withdrawn,ABCO - JT,,South,Kentucky Div,Wilkenson Hospital,"1-3 Years Experience,.NET Framework",test,,Agoura Hills,California,08778,United States,
REQ-ADVE-00034,"Raph, Remy",1234332534,9876435678,test+dmormon@goringo.com,09/07/2022,MadMax Associates,Assignment Completed,ABCO - JT,one,Northeast,Kansas Div,Stark Medical Centre,"1-3 Years Experience,.NET Framework",test,,Agoura Hills,California,08778,United States,
REQ-ADVE-00033,"crak, jack",5353723737,6593760372,jack@gmail.com,09/12/2022,MadMax Associates,Assignment Completed,Administration Clerk,,South,Kentucky Div,Wilkenson Hospital,Data Entry,zoo,vvk,New Kingman-Butler,Arizona,46853,United States,
REQ-ADVE-00032,"taiw, Atat",6453333333,2222222222,sgqgs@gmail.com,09/28/2022,MadMax Associates,Withdrawn,ABCO - JT,,South,Kentucky Div,Wilkenson Hospital,"1-3 Years Experience,.NET Framework",Addresss1,Addressd2,Adamsville,Alabama,22222,United States,
REQ-ADVE-00032,"Raph, Remy",1234332534,9876435678,test+dmormon@goringo.com,09/06/2022,MadMax Associates,Assignment Completed,ABCO - JT,,South,Kentucky Div,Wilkenson Hospital,"1-3 Years Experience,.NET Framework",test,,Agoura Hills,California,08778,United States,
REQ-ADVE-00030,"Tiwari, Atul",6282272827,6464646464,Test+atlt@goringo.com,08/30/2022,Lily Staffing,Assignment Completed,Administrative Assistant,one,Northeast,Kansas Div,Stark Medical Centre,"Clerical,MS Outlook,WordPerfect,Computer Experience",a,b,Adamsville,Alabama,864746888,United States,
REQ-ADVE-00028,"Tiwari, Atul",6282272827,6464646464,Test+atlt@goringo.com,09/06/2022,Lily Staffing,Assignment Completed,Administrative Assistant,one,Northeast,Kansas Div,Stark Medical Centre,"Clerical,MS Outlook,WordPerfect,Computer Experience",a,b,Adamsville,Alabama,864746888,United States,
REQ-ADVE-00028,"Tiwari, Atul",6282272827,6464646464,Test+atlt@goringo.com,08/29/2022,Lily Staffing,Withdrawn,Administrative Assistant,one,Northeast,Kansas Div,Stark Medical Centre,"Clerical,MS Outlook,WordPerfect,Computer Experience",a,b,Adamsville,Alabama,864746888,United States,
REQ-ADVE-00028,"Tiwari, Atul",6282272827,6464646464,Test+atlt@goringo.com,09/06/2022,Lily Staffing,Vendor Presentation Rejected,Administrative Assistant,one,Northeast,Kansas Div,Stark Medical Centre,"Clerical,MS Outlook,WordPerfect,Computer Experience",a,b,Adamsville,Alabama,864746888,United States,
REQ-ADVE-00027,"Tiwari, Atul",6282272827,6464646464,Test+atlt@goringo.com,09/07/2022,Lily Staffing,Assignment Completed,Administrative Assistant,one,Northeast,Kansas Div,Stark Medical Centre,"Clerical,MS Outlook,WordPerfect,Computer Experience",a,b,Adamsville,Alabama,864746888,United States,
REQ-ADVE-00026,"Nash, Ellie",8765434565,6554346778,Test+test+ellieP@goringo.com,08/29/2022,Lily Staffing,Assignment Completed,ABCO - JT,one,Northeast,Kansas Div,Stark Medical Centre,"1-3 Years Experience,.NET Framework",t,,Agua Dulce,California,87645,United States,
REQ-ADVE-00025,"Tiwari, Atul",6282272827,6464646464,Test+atlt@goringo.com,08/25/2022,Lily Staffing,Assignment Completed,Administrative Assistant,one,Northeast,Kansas Div,Stark Medical Centre,"Clerical,MS Outlook,WordPerfect,Computer Experience",a,b,Adamsville,Alabama,864746888,United States,
REQ-ADVE-00024,"Raph, Remy",1234332534,9876435678,test+dmormon@goringo.com,08/18/2022,MadMax Associates,Assignment Completed,ABCO - JT,one,Northeast,Kansas Div,Stark Medical Centre,"1-3 Years Experience,.NET Framework",test,,Agoura Hills,California,08778,United States,
REQ-ADVE-00021,"Knowles, John",1324678898,1265656565,Test+john@goringo.com,08/03/2022,MadMax Associates,Rejected,ABCO - JT,one,Northeast,Kansas Div,Stark Medical Centre,"1-3 Years Experience,.NET Framework",k,k,Abanda,Alabama,35652,United States,
REQ-ADVE-00021,"Tiwari, Atul",6282272827,6464646464,Test+atlt@goringo.com,08/03/2022,Lily Staffing,Assignment Completed,Administrative Assistant,one,Northeast,Kansas Div,Stark Medical Centre,"Clerical,MS Outlook,WordPerfect,Computer Experience",a,b,Adamsville,Alabama,864746888,United States,
REQ-ADVE-00019,"Potts, Pepper",3412321245,5645768798,Test+fghjkl@goringo.com,08/01/2022,MadMax Associates,Assignment Completed,Web Content Designer - CA,,South,Kentucky Div,Wilkenson Hospital,Computer Experience,h,,Abanda,Alabama,87656,United States,
REQ-ADVE-00017,"Nelson, Foggy",3242433133,0987665345,Test+foggy@goringo.com,07/31/2022,MadMax Associates,Assignment Completed,Web Content Designer - CA,one,Northeast,Kansas Div,Stark Medical Centre,Computer Experience,y,,Abanda,Alabama,87646,United States,
REQ-ADVE-00014,"Raph, Remy",1234332534,9876435678,test+dmormon@goringo.com,05/17/2022,MadMax Associates,Withdrawn,ABCO - JT,one,Northeast,Kansas Div,Stark Medical Centre,"1-3 Years Experience,.NET Framework",test,,Agoura Hills,California,08778,United States,
REQ-ADVE-00014,"Castle, Frank",5687987459,4561232465,Test+frank@goringo.com,05/24/2022,MadMax Associates,Withdrawn,Web Content Designer - CA,one,Northeast,Kansas Div,Stark Medical Centre,Computer Experience,y,y,Abanda,Alabama,12324,United States,
REQ-ADVE-00014,"Knowles, John",1324678898,1265656565,Test+john@goringo.com,05/17/2022,MadMax Associates,Withdrawn,ABCO - JT,one,Northeast,Kansas Div,Stark Medical Centre,"1-3 Years Experience,.NET Framework",k,k,Abanda,Alabama,35652,United States,
REQ-ADVE-00012,"Urich, Ben",5656456789,4567898765,Test+ben@goringo.com,05/14/2022,MadMax Associates,Offer Rejected,Web Content Designer - CA,one,Northeast,Kansas Div,Stark Medical Centre,Computer Experience,Address 1,Address 2,Addison,Illinois,76445,United States,
REQ-ADVE-00012,"Test, Lock",2342346521,4564687456,Test+test@goringo.com,05/10/2022,MadMax Associates,Assignment Completed,ABCO - JT,one,Northeast,Kansas Div,Stark Medical Centre,"1-3 Years Experience,.NET Framework",t,t,Akiachak,Alaska,23452,United States,
REQ-ADVE-00012,"Kurian, Joby",2312345678,5676135965,Test+gfkujk@goringo.com,05/04/2022,MadMax Associates,Assignment Completed,ABCO - JT,one,Northeast,Kansas Div,Stark Medical Centre,"1-3 Years Experience,.NET Framework",h,h,Abbeville,Alabama,55468,United States,
REQ-ADVE-00012,"Romanov, Natasha",8766678989,0654657678,Test+natasha@goringo.com,01/31/2022,MadMax Associates,Assignment Completed,Web Content Designer - CA,one,Northeast,Kansas Div,Stark Medical Centre,Computer Experience,15601 MOORESVILLE RD,,Athens,Alabama,356137308,United States,rate_card_test_div
REQ-ADVE-00011,"Castle, Frank",5687987459,4561232465,Test+frank@goringo.com,01/03/2022,MadMax Associates,Assignment Completed,Web Content Designer - CA,one,Northeast,Kansas Div,Stark Medical Centre,Computer Experience,y,y,Abanda,Alabama,12324,United States,
REQ-ADVE-00011,"Mathew, Josh",2343454643,5456465679,Test+tetqwew@goringo.com,05/04/2022,MadMax Associates,Assignment Completed,ABCO - JT,one,Northeast,Kansas Div,Stark Medical Centre,"1-3 Years Experience,.NET Framework",j,j,Abanda,Alabama,23656,United States,
REQ-ADVE-00010,"Urich, Ben",5656456789,4567898765,Test+ben@goringo.com,12/30/2021,MadMax Associates,Assignment Completed,Web Content Designer - CA,one,Northeast,Kansas Div,Stark Medical Centre,Computer Experience,Address 1,Address 2,Addison,Illinois,76445,United States,
REQ-ADVE-00009,"Potts, Pepper",3412321245,5645768798,Test+fghjkl@goringo.com,04/29/2022,MadMax Associates,Withdrawn,Web Content Designer - CA,one,Northeast,Kansas Div,Stark Medical Centre,Computer Experience,h,,Abanda,Alabama,87656,United States,
REQ-ADVE-00009,"Nyongo, Lupita",,5686568964,Test+lupita@goringo.com,04/29/2022,Core Staffing,Assignment Completed,ABCO - JT,one,Northeast,Kansas Div,Stark Medical Centre,"1-3 Years Experience,.NET Framework",h,h,Abanda,Alabama,12457,United States,
REQ-ADVE-00009,"Nelson, Foggy",3242433133,0987665345,Test+foggy@goringo.com,12/30/2021,MadMax Associates,Withdrawn,Web Content Designer - CA,one,Northeast,Kansas Div,Stark Medical Centre,Computer Experience,y,,Abanda,Alabama,87646,United States,
REQ-ADVE-00008,"Nelson, Foggy",3242433133,0987665345,Test+foggy@goringo.com,01/03/2022,MadMax Associates,Name Not Cleared,Web Content Designer - CA,one,Northeast,Kansas Div,Stark Medical Centre,Computer Experience,y,,Abanda,Alabama,87646,United States,
REQ-ADVE-00008,"Nelson, Foggy",3242433133,0987665345,Test+foggy@goringo.com,01/03/2022,MadMax Associates,Assignment Completed,Web Content Designer - CA,one,Northeast,Kansas Div,Stark Medical Centre,Computer Experience,y,,Abanda,Alabama,87646,United States,
REQ-ADVE-00008,"Walker, Allan",3454768878,4458809090,Test+wewer@goringo.com,01/03/2022,MadMax Associates,Risk Rejected,Senior Contracts Rep - CA,one,Northeast,Kansas Div,Stark Medical Centre,Excellent Follow-up Skills,t,,Abanda,Alabama,56566,United States,"Test,nurse"
REQ-ADVE-00008,"Nelson, Foggy",3242433133,0987665345,Test+foggy@goringo.com,01/03/2022,MadMax Associates,Name Not Cleared,Web Content Designer - CA,one,Northeast,Kansas Div,Stark Medical Centre,Computer Experience,y,,Abanda,Alabama,87646,United States,
REQ-ADVE-00008,"Walker, Allan",3454768878,4458809090,Test+wewer@goringo.com,12/30/2021,MadMax Associates,Rejected,Senior Contracts Rep - CA,one,Northeast,Kansas Div,Stark Medical Centre,Excellent Follow-up Skills,t,,Abanda,Alabama,56566,United States,"Test,nurse"
REQ-ADVE-00007,"Walker, Allan",3454768878,4458809090,Test+wewer@goringo.com,10/27/2021,MadMax Associates,Withdrawn,Senior Contracts Rep - CA,one,Northeast,Kansas Div,Stark Medical Centre,Excellent Follow-up Skills,t,,Abanda,Alabama,56566,United States,"Test,nurse"
REQ-ADVE-00002,"Walker, Allan",3454768878,4458809090,Test+wewer@goringo.com,06/28/2021,MadMax Associates,Assignment Completed,Senior Contracts Rep - CA,one,Northeast,Kansas Div,Stark Medical Centre,Excellent Follow-up Skills,t,,Abanda,Alabama,56566,United States,"Test,nurse"
REQ-ADVE-00002,"Potts, Pepper",3412321245,5645768798,Test+fghjkl@goringo.com,06/26/2021,MadMax Associates,Assignment Completed,Web Content Designer - CA,one,Northeast,Kansas Div,Stark Medical Centre,Computer Experience,h,,Abanda,Alabama,87656,United States,
